[{"OBJECT_NAME":"STARLINK-5849","OBJECT_ID":"2023-037L","EPOCH":"2026-03-09T22:35:24.848448","MEAN_MOTION":14.98330398,"ECCENTRICITY":0.00027473,"INCLINATION":69.9978,"RA_OF_ASC_NODE":283.9917,"ARG_OF_PERICENTER":267.7241,"MEAN_ANOMALY":92.3604,"EPHEMERIS_TYPE":0,"CLASSIFICATION_TYPE":"U","NORAD_CAT_ID":55924,"ELEMENT_SET_NO":999,"REV_AT_EPOCH":16401,"BSTAR":-3.7832407e-5,"MEAN_MOTION_DOT":-5.44e-6,"MEAN_MOTION_DDOT":0},{"OBJECT_NAME":"HAWK-10C","OBJECT_ID":"2024-149DM","EPOCH":"2026-03-09T19:12:00.010368","MEAN_MOTION":14.96177491,"ECCENTRICITY":0.0003886,"INCLINATION":97.6791,"RA_OF_ASC_NODE":145.3128,"ARG_OF_PERICENTER":47.6078,"MEAN_ANOMALY":312.5472,"EPHEMERIS_TYPE":0,"CLASSIFICATION_TYPE":"U","NORAD_CAT_ID":60575,"ELEMENT_SET_NO":999,"REV_AT_EPOCH":8512,"BSTAR":0.00025720063,"MEAN_MOTION_DOT":2.841e-5,"MEAN_MOTION_DDOT":0}]
